{"type": "FeatureCollection", "features": [ {"type": "Feature", "properties": {"norad_id": 34117, "name": "COSMOS 2251 DEB", "group": "cosmos-2251-debris", "lat": -4.806244861305786, "lon": -26.25857797971711, "alt_km": 739.0868735467784, "timestamp": "2025-12-17T10:52:54.746051+00:00", "meta": {"OBJECT_NAME": "COSMOS 2251 DEB", "OBJECT_ID": "1993-036KN", "EPOCH": "2025-12-16T16:33:52.410816", "MEAN_MOTION": 14.40028049, "ECCENTRICITY": 0.00546918, "INCLINATION": 74.0399, "RA_OF_ASC_NODE": 336.5297, "ARG_OF_PERICENTER": 51.7163, "MEAN_ANOMALY": 308.8892, "EPHEMERIS_TYPE": 0, "CLASSIFICATION_TYPE": "U", "NORAD_CAT_ID": 34117, "ELEMENT_SET_NO": 999, "REV_AT_EPOCH": 88180, "BSTAR": 0.00055122665, "MEAN_MOTION_DOT": 1.742e-05, "MEAN_MOTION_DDOT": 0}, "tle": {"line1": "1 34117U 93036KN  25350.69018994  .00001742  00000+0  55123-3 0  9990", "line2": "2 34117  74.0399 336.5297 0054691  51.7163 308.8892 14.40028049881808"}}, "geometry": {"type": "Point", "coordinates": [-26.25857797971711, -4.806244861305786]}}, {"type": "Feature", "properties": {"norad_id": 34118, "name": "COSMOS 2251 DEB", "group": "cosmos-2251-debris", "lat": -72.22397840225238, "lon": 123.63663750484716, "alt_km": 632.6401280759064, "timestamp": "2025-12-17T10:52:54.746061+00:00", "meta": {"OBJECT_NAME": "COSMOS 2251 DEB", "OBJECT_ID": "1993-036KP", "EPOCH": "2025-12-16T03:51:00.167904", "MEAN_MOTION": 14.94077964, "ECCENTRICITY": 0.00599036, "INCLINATION": 73.9524, "RA_OF_ASC_NODE": 242.381, "ARG_OF_PERICENTER": 71.8279, "MEAN_ANOMALY": 78.847, "EPHEMERIS_TYPE": 0, "CLASSIFICATION_TYPE": "U", "NORAD_CAT_ID": 34118, "ELEMENT_SET_NO": 999, "REV_AT_EPOCH": 89227, "BSTAR": 0.001131714, "MEAN_MOTION_DOT": 0.00012509, "MEAN_MOTION_DDOT": 0}, "tle": {"line1": "1 34118U 93036KP  25350.16041861  .00012509  00000+0  11317-2 0  9991", "line2": "2 34118  73.9524 242.3810 0059903  71.8279  78.8470 14.94077964892272"}}, "geometry": {"type": "Point", "coordinates": [123.63663750484716, -72.22397840225238]}}, {"type": "Feature", "properties": {"norad_id": 34120, "name": "COSMOS 2251 DEB", "group": "cosmos-2251-debris", "lat": 41.74149940136058, "lon": 13.21335453600056, "alt_km": 918.4185598680497, "timestamp": "2025-12-17T10:52:54.746071+00:00", "meta": {"OBJECT_NAME": "COSMOS 2251 DEB", "OBJECT_ID": "1993-036KR", "EPOCH": "2025-12-16T17:24:04.444416", "MEAN_MOTION": 13.9868854, "ECCENTRICITY": 0.01821456, "INCLINATION": 73.9907, "RA_OF_ASC_NODE": 209.3176, "ARG_OF_PERICENTER": 36.1176, "MEAN_ANOMALY": 31.8367, "EPHEMERIS_TYPE": 0, "CLASSIFICATION_TYPE": "U", "NORAD_CAT_ID": 34120, "ELEMENT_SET_NO": 999, "REV_AT_EPOCH": 86036, "BSTAR": 0.00032063996, "MEAN_MOTION_DOT": 5.07e-06, "MEAN_MOTION_DDOT": 0}, "tle": {"line1": "1 34120U 93036KR  25350.72505144  .00000507  00000+0  32064-3 0  9993", "line2": "2 34120  73.9907 209.3176 0182145  36.1176  31.8367 13.98688540860363"}}, "geometry": {"type": "Point", "coordinates": [13.21335453600056, 41.74149940136058]}}, {"type": "Feature", "properties": {"norad_id": 34121, "name": "COSMOS 2251 DEB", "group": "cosmos-2251-debris", "lat": -47.336067000451095, "lon": -72.7596160000622, "alt_km": 847.1042256547744, "timestamp": "2025-12-17T10:52:54.746081+00:00", "meta": {"OBJECT_NAME": "COSMOS 2251 DEB", "OBJECT_ID": "1993-036KS", "EPOCH": "2025-12-17T00:17:48.456096", "MEAN_MOTION": 13.91945256, "ECCENTRICITY": 0.0240524, "INCLINATION": 73.9932, "RA_OF_ASC_NODE": 89.8481, "ARG_OF_PERICENTER": 294.3899, "MEAN_ANOMALY": 248.6648, "EPHEMERIS_TYPE": 0, "CLASSIFICATION_TYPE": "U", "NORAD_CAT_ID": 34121, "ELEMENT_SET_NO": 999, "REV_AT_EPOCH": 85184, "BSTAR": 0.00096090066, "MEAN_MOTION_DOT": 1.527e-05, "MEAN_MOTION_DDOT": 0}, "tle": {"line1": "1 34121U 93036KS  25351.01236639  .00001527  00000+0  96090-3 0  9999", "line2": "2 34121  73.9932  89.8481 0240524 294.3899 248.6648 13.91945256851844"}}, "geometry": {"type": "Point", "coordinates": [-72.7596160000622, -47.336067000451095]}}, {"type": "Feature", "properties": {"norad_id": 34122, "name": "COSMOS 2251 DEB", "group": "cosmos-2251-debris", "lat": -70.3817916740059, "lon": 56.13710162945381, "alt_km": 676.4681170129552, "timestamp": "2025-12-17T10:52:54.746091+00:00", "meta": {"OBJECT_NAME": "COSMOS 2251 DEB", "OBJECT_ID": "1993-036KT", "EPOCH": "2025-12-16T17:46:53.465376", "MEAN_MOTION": 14.6509985, "ECCENTRICITY": 0.00845372, "INCLINATION": 74.0356, "RA_OF_ASC_NODE": 110.9358, "ARG_OF_PERICENTER": 6.6686, "MEAN_ANOMALY": 119.3435, "EPHEMERIS_TYPE": 0, "CLASSIFICATION_TYPE": "U", "NORAD_CAT_ID": 34122, "ELEMENT_SET_NO": 999, "REV_AT_EPOCH": 88743, "BSTAR": 0.0008126767, "MEAN_MOTION_DOT": 4.57e-05, "MEAN_MOTION_DDOT": 0}, "tle": {"line1": "1 34122U 93036KT  25350.74089659  .00004570  00000+0  81268-3 0  9999", "line2": "2 34122  74.0356 110.9358 0084537   6.6686 119.3435 14.65099850887438"}}, "geometry": {"type": "Point", "coordinates": [56.13710162945381, -70.3817916740059]}}, {"type": "Feature", "properties": {"norad_id": 34127, "name": "COSMOS 2251 DEB", "group": "cosmos-2251-debris", "lat": -13.227004432869784, "lon": 31.524789765195926, "alt_km": 820.5866842720434, "timestamp": "2025-12-17T10:52:54.746101+00:00", "meta": {"OBJECT_NAME": "COSMOS 2251 DEB", "OBJECT_ID": "1993-036KY", "EPOCH": "2025-12-16T09:52:44.641920", "MEAN_MOTION": 14.31580556, "ECCENTRICITY": 0.01149826, "INCLINATION": 74.18, "RA_OF_ASC_NODE": 37.2278, "ARG_OF_PERICENTER": 236.5666, "MEAN_ANOMALY": 141.6936, "EPHEMERIS_TYPE": 0, "CLASSIFICATION_TYPE": "U", "NORAD_CAT_ID": 34127, "ELEMENT_SET_NO": 999, "REV_AT_EPOCH": 86824, "BSTAR": 0.0012302895, "MEAN_MOTION_DOT": 3.496e-05, "MEAN_MOTION_DDOT": 0}, "tle": {"line1": "1 34127U 93036KY  25350.41162780  .00003496  00000+0  12303-2 0  9994", "line2": "2 34127  74.1800  37.2278 0114982 236.5666 141.6936 14.31580556868243"}}, "geometry": {"type": "Point", "coordinates": [31.524789765195926, -13.227004432869784]}}, {"type": "Feature", "properties": {"norad_id": 34128, "name": "COSMOS 2251 DEB", "group": "cosmos-2251-debris", "lat": -62.66132582980865, "lon": -106.61127588111044, "alt_km": 574.3998887189537, "timestamp": "2025-12-17T10:52:54.746112+00:00", "meta": {"OBJECT_NAME": "COSMOS 2251 DEB", "OBJECT_ID": "1993-036KZ", "EPOCH": "2025-12-16T22:41:38.549184", "MEAN_MOTION": 15.01334618, "ECCENTRICITY": 0.00259705, "INCLINATION": 73.9995, "RA_OF_ASC_NODE": 288.1382, "ARG_OF_PERICENTER": 39.391, "MEAN_ANOMALY": 29.8538, "EPHEMERIS_TYPE": 0, "CLASSIFICATION_TYPE": "U", "NORAD_CAT_ID": 34128, "ELEMENT_SET_NO": 999, "REV_AT_EPOCH": 89230, "BSTAR": 0.0013215924, "MEAN_MOTION_DOT": 0.00017147, "MEAN_MOTION_DDOT": 0}, "tle": {"line1": "1 34128U 93036KZ  25350.94558506  .00017147  00000+0  13216-2 0  9990", "line2": "2 34128  73.9995 288.1382 0025970  39.3910  29.8538 15.01334618892301"}}, "geometry": {"type": "Point", "coordinates": [-106.61127588111044, -62.66132582980865]}}, {"type": "Feature", "properties": {"norad_id": 34129, "name": "COSMOS 2251 DEB", "group": "cosmos-2251-debris", "lat": 39.62006800608958, "lon": 136.59259438802604, "alt_km": 638.3015387959294, "timestamp": "2025-12-17T10:52:54.746121+00:00", "meta": {"OBJECT_NAME": "COSMOS 2251 DEB", "OBJECT_ID": "1993-036LA", "EPOCH": "2025-12-16T22:52:18.760224", "MEAN_MOTION": 14.75812073, "ECCENTRICITY": 0.00331195, "INCLINATION": 74.0346, "RA_OF_ASC_NODE": 331.2812, "ARG_OF_PERICENTER": 51.4148, "MEAN_ANOMALY": 308.9984, "EPHEMERIS_TYPE": 0, "CLASSIFICATION_TYPE": "U", "NORAD_CAT_ID": 34129, "ELEMENT_SET_NO": 999, "REV_AT_EPOCH": 61360, "BSTAR": 0.0011139727, "MEAN_MOTION_DOT": 7.681e-05, "MEAN_MOTION_DDOT": 0}, "tle": {"line1": "1 34129U 93036LA  25350.95299491  .00007681  00000+0  11140-2 0  9993", "line2": "2 34129  74.0346 331.2812 0033119  51.4148 308.9984 14.75812073613600"}}, "geometry": {"type": "Point", "coordinates": [136.59259438802604, 39.62006800608958]}}, {"type": "Feature", "properties": {"norad_id": 34136, "name": "COSMOS 2251 DEB", "group": "cosmos-2251-debris", "lat": 4.864740101050228, "lon": 34.734582344887336, "alt_km": 682.6726836064363, "timestamp": "2025-12-17T10:52:54.746132+00:00", "meta": {"OBJECT_NAME": "COSMOS 2251 DEB", "OBJECT_ID": "1993-036LH", "EPOCH": "2025-12-16T14:19:16.208832", "MEAN_MOTION": 14.80108266, "ECCENTRICITY": 0.0085499, "INCLINATION": 74.0211, "RA_OF_ASC_NODE": 35.0259, "ARG_OF_PERICENTER": 156.9628, "MEAN_ANOMALY": 325.8012, "EPHEMERIS_TYPE": 0, "CLASSIFICATION_TYPE": "U", "NORAD_CAT_ID": 34136, "ELEMENT_SET_NO": 999, "REV_AT_EPOCH": 90067, "BSTAR": 0.00029942805, "MEAN_MOTION_DOT": 2.38e-05, "MEAN_MOTION_DDOT": 0}, "tle": {"line1": "1 34136U 93036LH  25350.59671538  .00002380  00000+0  29943-3 0  9999", "line2": "2 34136  74.0211  35.0259 0085499 156.9628 325.8012 14.80108266900679"}}, "geometry": {"type": "Point", "coordinates": [34.734582344887336, 4.864740101050228]}}, {"type": "Feature", "properties": {"norad_id": 34139, "name": "COSMOS 2251 DEB", "group": "cosmos-2251-debris", "lat": 73.97629191570421, "lon": -20.527023374335702, "alt_km": 710.0752324389696, "timestamp": "2025-12-17T10:52:54.746152+00:00", "meta": {"OBJECT_NAME": "COSMOS 2251 DEB", "OBJECT_ID": "1993-036LL", "EPOCH": "2025-12-16T19:57:35.284896", "MEAN_MOTION": 14.59120858, "ECCENTRICITY": 0.00425012, "INCLINATION": 74.031, "RA_OF_ASC_NODE": 246.2632, "ARG_OF_PERICENTER": 316.7268, "MEAN_ANOMALY": 109.5111, "EPHEMERIS_TYPE": 0, "CLASSIFICATION_TYPE": "U", "NORAD_CAT_ID": 34139, "ELEMENT_SET_NO": 999, "REV_AT_EPOCH": 88209, "BSTAR": 0.0010223042, "MEAN_MOTION_DOT": 4.846e-05, "MEAN_MOTION_DDOT": 0}, "tle": {"line1": "1 34139U 93036LL  25350.83165839  .00004846  00000+0  10223-2 0  9990", "line2": "2 34139  74.0310 246.2632 0042501 316.7268 109.5111 14.59120858882095"}}, "geometry": {"type": "Point", "coordinates": [-20.527023374335702, 73.97629191570421]}}]}